IRIDIUM 155             
1 43573U 18061E   24110.86634326  .00000956  00000+0  33427-3 0  9995
2 43573  86.4018  26.1253 0002292  79.4714 280.6740 14.34232524300366
IRIDIUM 154             
1 43574U 18061F   24110.84734877  .00001289  00000+0  45313-3 0  9993
2 43574  86.4023  26.2277 0002132  91.9697 268.1743 14.34229218300418
IRIDIUM 163             
1 43575U 18061G   24110.82830884  .00000961  00000+0  33616-3 0  9996
2 43575  86.4019  26.1758 0002303  79.6681 280.4774 14.34222875300382
IRIDIUM 156             
1 43576U 18061H   24110.80294442  .00000826  00000+0  28799-3 0  9995
2 43576  86.4018  26.1928 0002082  79.0686 281.0744 14.34218037300372
IRIDIUM 164             
1 43577U 18061J   24110.78391392  .00001097  00000+0  38477-3 0  9990
2 43577  86.4022  26.2290 0001915  85.4660 274.6754 14.34216029300411
IRIDIUM 159             
1 43578U 18061K   24110.82197089  .00001758  00000+0  62046-3 0  9996
2 43578  86.4024  26.1666 0002260  88.5168 271.6286 14.34219183300388
IRIDIUM 180             
1 43922U 19002A   24110.68192397  .00000379  00000+0  12826-3 0  9995
2 43922  86.3952 323.1402 0002180  89.8376 270.3070 14.34219459275973
IRIDIUM 176             
1 43923U 19002B   24111.54919124  .00003080  00000+0  48432-3 0  9991
2 43923  86.6089 322.8038 0002448  87.5682 272.5816 14.72264123283365
IRIDIUM 168             
1 43924U 19002C   24110.67558578  .00000679  00000+0  23533-3 0  9993
2 43924  86.3958 323.1981 0002121  88.6105 271.5334 14.34218046275950
IRIDIUM 173             
1 43925U 19002D   24110.94197493  .00000186  00000+0  59304-4 0  9998
2 43925  86.3955 323.0078 0002050  89.8229 270.3201 14.34217009275975
IRIDIUM 169             
1 43926U 19002E   24110.76803538  .00000960  00000+0  30731-3 0  9995
2 43926  86.4267 354.6864 0004310  73.7751 286.3921 14.38613426276872
IRIDIUM 172             
1 43927U 19002F   24111.14493922 -.00000095  00000+0 -40811-4 0  9993
2 43927  86.3949 322.9280 0001999  89.2860 270.8565 14.34217879276018
IRIDIUM 175             
1 43928U 19002G   24111.54341516  .00000588  00000+0  89356-4 0  9991
2 43928  86.1466 299.1969 0002199  87.3524 272.7944 14.72244978283358
IRIDIUM 171             
1 43929U 19002H   24111.12590737  .00000985  00000+0  34456-3 0  9998
2 43929  86.3963 323.1558 0001957  80.4892 279.6525 14.34219990276007
IRIDIUM 170             
1 43930U 19002J   24110.67179645  .00002154  00000+0  33754-3 0  9990
2 43930  86.6083 323.1752 0002222  90.4694 269.6778 14.72258354283240
IRIDIUM 167             
1 43931U 19002K   24111.11956696  .00000222  00000+0  72184-4 0  9995
2 43931  86.3953 322.9547 0002091  86.4909 273.6526 14.34218574276001
IRIDIUM 181             
1 56726U 23068S   24110.81206648  .00001311  00000+0  38161-3 0  9995
2 56726  86.8691  13.9520 0002122  79.8299 280.3142 14.43581984 48714
IRIDIUM 177             
1 56727U 23068T   24111.15542668  .00004380  00000+0  57328-3 0  9994
2 56727  86.2002 342.9245 0001941  93.5255 266.6188 14.80199608 49792
IRIDIUM 174             
1 56728U 23068U   24111.48801451  .00004314  00000+0  56431-3 0  9990
2 56728  86.2007 342.8663 0002648  90.6117 269.5407 14.80217244 49840
IRIDIUM 178             
1 56729U 23068V   24111.21219413  .00004919  00000+0  64374-3 0  9999
2 56729  86.5831 357.7050 0002774  89.9648 270.1891 14.80230319 49803
IRIDIUM 179             
1 56730U 23068W   24111.20676798  .00004663  00000+0  61026-3 0  9990
2 56730  86.6844   1.1083 0003004  96.6807 263.4756 14.80222884 49808
